start=new Date('2023-04-10T00:00:00.000Z').valueOf();
sats=[{"MEAN_ELEMENT_THEORY":"SGP4","PERIOD":"95.437","MEAN_MOTION_DOT":"0.00003458","FILE":"3884332","ELEMENT_SET_NO":"999","TIME_SYSTEM":"UTC","SEMIMAJOR_AXIS":"6917.859","EPOCH":"2023-04-09T06:17:55.966848","RA_OF_ASC_NODE":"52.0106","DECAY_DATE":null,"LAUNCH_DATE":"2022-01-19","OBJECT_NAME":"STARLINK-3361","BSTAR":"0.00023522000000","NORAD_CAT_ID":"51151","REV_AT_EPOCH":"6775","GP_ID":"229776193","MEAN_MOTION_DDOT":"0.0000000000000","INCLINATION":"53.2186","ECCENTRICITY":"0.00012030","MEAN_ANOMALY":"257.8226","RCS_SIZE":"LARGE","REF_FRAME":"TEME","OBJECT_ID":"2022-005AZ","APOAPSIS":"540.556","ARG_OF_PERICENTER":"102.2901","OBJECT_TYPE":"PAYLOAD","PERIAPSIS":"538.892","SITE":"AFETR","TLE_LINE1":"1 51151U 22005AZ  23099.26245332  .00003458  00000-0  23522-3 0  9999","MEAN_MOTION":"15.08846940","COUNTRY_CODE":"US","CLASSIFICATION_TYPE":"U","TLE_LINE2":"2 51151  53.2186  52.0106 0001203 102.2901 257.8226 15.08846940 67757","CENTER_NAME":"EARTH","EPHEMERIS_TYPE":"0"},{"CENTER_NAME":"EARTH","EPHEMERIS_TYPE":"0","TLE_LINE1":"1 51152U 22005BA  23099.26613659  .00007720  00000-0  50287-3 0  9995","MEAN_MOTION":"15.08822290","CLASSIFICATION_TYPE":"U","COUNTRY_CODE":"US","TLE_LINE2":"2 51152  53.2175  51.9897 0001321  94.8801 265.2342 15.08822290 68864","ARG_OF_PERICENTER":"94.8801","OBJECT_TYPE":"PAYLOAD","PERIAPSIS":"538.886","SITE":"AFETR","RCS_SIZE":"LARGE","MEAN_ANOMALY":"265.2342","APOAPSIS":"540.713","OBJECT_ID":"2022-005BA","REF_FRAME":"TEME","NORAD_CAT_ID":"51152","GP_ID":"229744367","REV_AT_EPOCH":"6886","INCLINATION":"53.2175","MEAN_MOTION_DDOT":"0.0000000000000","ECCENTRICITY":"0.00013210","BSTAR":"0.00050287000000","EPOCH":"2023-04-09T06:23:14.201376","SEMIMAJOR_AXIS":"6917.935","RA_OF_ASC_NODE":"51.9897","DECAY_DATE":null,"LAUNCH_DATE":"2022-01-19","OBJECT_NAME":"STARLINK-3364","MEAN_ELEMENT_THEORY":"SGP4","PERIOD":"95.439","FILE":"3883966","MEAN_MOTION_DOT":"0.00007720","TIME_SYSTEM":"UTC","ELEMENT_SET_NO":"999"},{"BSTAR":"0.00004263100000","ECCENTRICITY":"0.00013450","MEAN_MOTION_DDOT":"0.0000000000000","INCLINATION":"53.2189","REV_AT_EPOCH":"6652","GP_ID":"229785809","NORAD_CAT_ID":"51460","TIME_SYSTEM":"UTC","ELEMENT_SET_NO":"999","FILE":"3884606","MEAN_MOTION_DOT":"0.00000391","PERIOD":"95.438","MEAN_ELEMENT_THEORY":"SGP4","LAUNCH_DATE":"2022-02-03","OBJECT_NAME":"STARLINK-3167","DECAY_DATE":null,"RA_OF_ASC_NODE":"18.9597","EPOCH":"2023-04-09T22:36:57.801024","SEMIMAJOR_AXIS":"6917.879","TLE_LINE2":"2 51460  53.2189  18.9597 0001345 109.9273 250.1865 15.08840578 66521","CLASSIFICATION_TYPE":"U","COUNTRY_CODE":"US","MEAN_MOTION":"15.08840578","TLE_LINE1":"1 51460U 22010E   23099.94233566  .00000391  00000-0  42631-4 0  9995","EPHEMERIS_TYPE":"0","CENTER_NAME":"EARTH","APOAPSIS":"540.674","OBJECT_ID":"2022-010E","REF_FRAME":"TEME","RCS_SIZE":"LARGE","MEAN_ANOMALY":"250.1865","SITE":"AFETR","OBJECT_TYPE":"PAYLOAD","PERIAPSIS":"538.813","ARG_OF_PERICENTER":"109.9273"},{"MEAN_ANOMALY":"265.0533","RCS_SIZE":"LARGE","REF_FRAME":"TEME","APOAPSIS":"540.545","OBJECT_ID":"2022-010F","ARG_OF_PERICENTER":"95.0593","OBJECT_TYPE":"PAYLOAD","PERIAPSIS":"538.925","SITE":"AFETR","TLE_LINE1":"1 51461U 22010F   23099.16585359  .00003143  00000-0  21542-3 0  9995","MEAN_MOTION":"15.08843480","COUNTRY_CODE":"US","CLASSIFICATION_TYPE":"U","TLE_LINE2":"2 51461  53.2178  22.4408 0001171  95.0593 265.0533 15.08843480 65967","CENTER_NAME":"EARTH","EPHEMERIS_TYPE":"0","MEAN_ELEMENT_THEORY":"SGP4","PERIOD":"95.437","MEAN_MOTION_DOT":"0.00003143","FILE":"3884332","ELEMENT_SET_NO":"999","TIME_SYSTEM":"UTC","SEMIMAJOR_AXIS":"6917.870","EPOCH":"2023-04-09T03:58:49.750176","RA_OF_ASC_NODE":"22.4408","DECAY_DATE":null,"LAUNCH_DATE":"2022-02-03","OBJECT_NAME":"STARLINK-3181","BSTAR":"0.00021542000000","NORAD_CAT_ID":"51461","GP_ID":"229776197","REV_AT_EPOCH":"6596","MEAN_MOTION_DDOT":"0.0000000000000","INCLINATION":"53.2178","ECCENTRICITY":"0.00011710"},{"PERIAPSIS":"538.893","OBJECT_TYPE":"PAYLOAD","ARG_OF_PERICENTER":"77.5509","SITE":"AFETR","RCS_SIZE":"LARGE","MEAN_ANOMALY":"282.5631","APOAPSIS":"540.726","OBJECT_ID":"2022-010G","REF_FRAME":"TEME","CENTER_NAME":"EARTH","EPHEMERIS_TYPE":"0","MEAN_MOTION":"15.08819005","TLE_LINE1":"1 51462U 22010G   23099.82556838  .00009971  00000-0  64406-3 0  9990","TLE_LINE2":"2 51462  53.2174  19.4891 0001325  77.5509 282.5631 15.08819005 66060","CLASSIFICATION_TYPE":"U","COUNTRY_CODE":"US","RA_OF_ASC_NODE":"19.4891","EPOCH":"2023-04-09T19:48:49.108032","SEMIMAJOR_AXIS":"6917.945","LAUNCH_DATE":"2022-02-03","OBJECT_NAME":"STARLINK-3166","DECAY_DATE":null,"PERIOD":"95.439","MEAN_ELEMENT_THEORY":"SGP4","TIME_SYSTEM":"UTC","ELEMENT_SET_NO":"999","MEAN_MOTION_DOT":"0.00009971","FILE":"3884641","REV_AT_EPOCH":"6606","GP_ID":"229809188","NORAD_CAT_ID":"51462","ECCENTRICITY":"0.00013250","INCLINATION":"53.2174","MEAN_MOTION_DDOT":"0.0000000000000","BSTAR":"0.00064406000000"},{"NORAD_CAT_ID":"51463","REV_AT_EPOCH":"6575","GP_ID":"229809433","INCLINATION":"53.2183","MEAN_MOTION_DDOT":"0.0000000000000","ECCENTRICITY":"0.00012050","BSTAR":"-0.00006991900000","SEMIMAJOR_AXIS":"6917.893","EPOCH":"2023-04-09T19:10:17.621184","RA_OF_ASC_NODE":"19.6009","DECAY_DATE":null,"LAUNCH_DATE":"2022-02-03","OBJECT_NAME":"STARLINK-3419","MEAN_ELEMENT_THEORY":"SGP4","PERIOD":"95.438","FILE":"3884641","MEAN_MOTION_DOT":"-0.00001400","ELEMENT_SET_NO":"999","TIME_SYSTEM":"UTC","CENTER_NAME":"EARTH","EPHEMERIS_TYPE":"0","TLE_LINE1":"1 51463U 22010H   23099.79881506 -.00001400  00000-0 -69919-4 0  9996","MEAN_MOTION":"15.08835909","COUNTRY_CODE":"US","CLASSIFICATION_TYPE":"U","TLE_LINE2":"2 51463  53.2183  19.6009 0001205  88.9225 271.1906 15.08835909 65757","ARG_OF_PERICENTER":"88.9225","PERIAPSIS":"538.924","OBJECT_TYPE":"PAYLOAD","SITE":"AFETR","MEAN_ANOMALY":"271.1906","RCS_SIZE":"LARGE","REF_FRAME":"TEME","OBJECT_ID":"2022-010H","APOAPSIS":"540.591"},{"OBJECT_NAME":"STARLINK-3189","LAUNCH_DATE":"2022-02-03","DECAY_DATE":null,"RA_OF_ASC_NODE":"22.4872","SEMIMAJOR_AXIS":"6917.879","EPOCH":"2023-04-09T03:42:55.957248","ELEMENT_SET_NO":"999","TIME_SYSTEM":"UTC","MEAN_MOTION_DOT":"0.00001264","FILE":"3884332","PERIOD":"95.438","MEAN_ELEMENT_THEORY":"SGP4","ECCENTRICITY":"0.00010880","INCLINATION":"53.2164","MEAN_MOTION_DDOT":"0.0000000000000","GP_ID":"229775447","REV_AT_EPOCH":"6646","NORAD_CAT_ID":"51464","BSTAR":"0.00009748500000","SITE":"AFETR","PERIAPSIS":"538.992","OBJECT_TYPE":"PAYLOAD","ARG_OF_PERICENTER":"85.6392","REF_FRAME":"TEME","OBJECT_ID":"2022-010J","APOAPSIS":"540.497","MEAN_ANOMALY":"274.4724","RCS_SIZE":"LARGE","EPHEMERIS_TYPE":"0","CENTER_NAME":"EARTH","TLE_LINE2":"2 51464  53.2164  22.4872 0001088  85.6392 274.4724 15.08840368 66463","COUNTRY_CODE":"US","CLASSIFICATION_TYPE":"U","MEAN_MOTION":"15.08840368","TLE_LINE1":"1 51464U 22010J   23099.15481432  .00001264  00000-0  97485-4 0  9996"},{"BSTAR":"0.00008094400000","GP_ID":"229776698","REV_AT_EPOCH":"6646","NORAD_CAT_ID":"51465","ECCENTRICITY":"0.00011790","INCLINATION":"53.2175","MEAN_MOTION_DDOT":"0.0000000000000","PERIOD":"95.438","MEAN_ELEMENT_THEORY":"SGP4","ELEMENT_SET_NO":"999","TIME_SYSTEM":"UTC","MEAN_MOTION_DOT":"0.00001001","FILE":"3884332","RA_OF_ASC_NODE":"22.5061","SEMIMAJOR_AXIS":"6917.878","EPOCH":"2023-04-09T03:37:38.039808","OBJECT_NAME":"STARLINK-3401","LAUNCH_DATE":"2022-02-03","DECAY_DATE":null,"MEAN_MOTION":"15.08840760","TLE_LINE1":"1 51465U 22010K   23099.15113472  .00001001  00000-0  80944-4 0  9994","TLE_LINE2":"2 51465  53.2175  22.5061 0001179  78.1935 281.9189 15.08840760 66462","COUNTRY_CODE":"US","CLASSIFICATION_TYPE":"U","CENTER_NAME":"EARTH","EPHEMERIS_TYPE":"0","MEAN_ANOMALY":"281.9189","RCS_SIZE":"LARGE","REF_FRAME":"TEME","APOAPSIS":"540.559","OBJECT_ID":"2022-010K","OBJECT_TYPE":"PAYLOAD","PERIAPSIS":"538.927","ARG_OF_PERICENTER":"78.1935","SITE":"AFETR"},{"MEAN_ELEMENT_THEORY":"SGP4","PERIOD":"95.438","FILE":"3884641","MEAN_MOTION_DOT":"-0.00000793","ELEMENT_SET_NO":"999","TIME_SYSTEM":"UTC","SEMIMAJOR_AXIS":"6917.882","EPOCH":"2023-04-09T19:04:59.919744","RA_OF_ASC_NODE":"19.6154","DECAY_DATE":null,"LAUNCH_DATE":"2022-02-03","OBJECT_NAME":"STARLINK-3178","BSTAR":"-0.00003174400000","NORAD_CAT_ID":"51467","GP_ID":"229809689","REV_AT_EPOCH":"6575","INCLINATION":"53.2168","MEAN_MOTION_DDOT":"0.0000000000000","ECCENTRICITY":"0.00011660","MEAN_ANOMALY":"260.7273","RCS_SIZE":"LARGE","REF_FRAME":"TEME","OBJECT_ID":"2022-010M","APOAPSIS":"540.554","ARG_OF_PERICENTER":"99.3851","OBJECT_TYPE":"PAYLOAD","PERIAPSIS":"538.940","SITE":"AFETR","TLE_LINE1":"1 51467U 22010M   23099.79513796 -.00000793  00000-0 -31744-4 0  9992","MEAN_MOTION":"15.08839465","COUNTRY_CODE":"US","CLASSIFICATION_TYPE":"U","TLE_LINE2":"2 51467  53.2168  19.6154 0001166  99.3851 260.7273 15.08839465 65754","CENTER_NAME":"EARTH","EPHEMERIS_TYPE":"0"},{"COUNTRY_CODE":"US","CLASSIFICATION_TYPE":"U","TLE_LINE2":"2 51468  53.2183  19.5719 0001061  85.9535 274.1579 15.08829851 65758","TLE_LINE1":"1 51468U 22010N   23099.80713291 -.00000297  00000-0 -60062-6 0  9993","MEAN_MOTION":"15.08829851","EPHEMERIS_TYPE":"0","CENTER_NAME":"EARTH","REF_FRAME":"TEME","APOAPSIS":"540.510","OBJECT_ID":"2022-010N","MEAN_ANOMALY":"274.1579","RCS_SIZE":"LARGE","SITE":"AFETR","ARG_OF_PERICENTER":"85.9535","PERIAPSIS":"539.042","OBJECT_TYPE":"PAYLOAD","BSTAR":"-0.00000060062000","MEAN_MOTION_DDOT":"0.0000000000000","INCLINATION":"53.2183","ECCENTRICITY":"0.00010610","NORAD_CAT_ID":"51468","GP_ID":"229809934","REV_AT_EPOCH":"6575","MEAN_MOTION_DOT":"-0.00000297","FILE":"3884641","ELEMENT_SET_NO":"999","TIME_SYSTEM":"UTC","MEAN_ELEMENT_THEORY":"SGP4","PERIOD":"95.438","DECAY_DATE":null,"LAUNCH_DATE":"2022-02-03","OBJECT_NAME":"STARLINK-3174","SEMIMAJOR_AXIS":"6917.911","EPOCH":"2023-04-09T19:22:16.283424","RA_OF_ASC_NODE":"19.5719"}];
